ASIASAT 9               
1 42942U 17057A   20363.96553420 -.00000339  00000-0  00000-0 0  9995
2 42942   0.0217   1.9729 0002580 265.9059 299.6946  1.00270063 11929
YAOGAN 30 A             
1 42945U 17058A   20365.52932962  .00000258  00000-0  29140-4 0  9994
2 42945  34.9988 151.8817 0002915 207.3122 152.7439 14.89851446177312
YAOGAN 30 B             
1 42946U 17058B   20365.48439326  .00000244  00000-0  27663-4 0  9999
2 42946  34.9985 152.4498 0003180 345.7278  14.3355 14.89845448177300
YAOGAN 30 C             
1 42947U 17058C   20365.50654345  .00000269  00000-0  30216-4 0  9998
2 42947  34.9988 152.6131 0006744 239.5094 120.4967 14.89849379177298
INTELSAT 37E (IS-37E)   
1 42950U 17059A   20365.44491714 -.00000122  00000-0  00000+0 0  9997
2 42950   0.0226 343.4180 0003040 287.1459 330.9290  1.00269437 12043
BSAT-4A                 
1 42951U 17059B   20364.82444617 -.00000331  00000-0  00000-0 0  9992
2 42951   0.0562  49.2585 0002218 300.1103 156.0028  1.00271844 11797
VRSS-2                  
1 42954U 17060A   20365.47435508  .00000142  00000-0  27852-4 0  9995
2 42954  97.9111  77.1795 0020376  91.1771 269.1778 14.76131753173801
IRIDIUM 133             
1 42955U 17061A   20365.14031024  .00000057  00000-0  13324-4 0  9990
2 42955  86.3984 139.0038 0002488  94.6511 265.4969 14.34215791168820
IRIDIUM 100             
1 42956U 17061B   20364.64559539  .00000078  00000-0  20886-4 0  9995
2 42956  86.3982 139.1768 0002078  92.8999 267.2434 14.34217077168775
IRIDIUM 122             
1 42957U 17061C   20365.31156358  .00000088  00000-0  24373-4 0  9999
2 42957  86.3982 138.8945 0002654  91.3318 268.8182 14.34216333168858
IRIDIUM 129             
1 42958U 17061D   20365.12762136  .00000079  00000-0  21134-4 0  9998
2 42958  86.3983 139.0167 0002485  94.2944 265.8536 14.34215520168844
IRIDIUM 119             
1 42959U 17061E   20365.37498757  .00000082  00000-0  22389-4 0  9998
2 42959  86.3984 138.8993 0002455  96.5071 263.6404 14.34216623168893
IRIDIUM 107             
1 42960U 17061F   20365.39400823  .00000071  00000-0  18319-4 0  9995
2 42960  86.3984 138.9002 0002206  92.1115 268.0333 14.34215484168919
IRIDIUM 132             
1 42961U 17061G   20365.12128649  .00000071  00000-0  18207-4 0  9996
2 42961  86.3984 139.0049 0002208  86.0457 274.0991 14.34217473168867
IRIDIUM 136             
1 42962U 17061H   20365.36230053  .00000084  00000-0  23057-4 0  9999
2 42962  86.3983 138.9042 0002410  98.8593 261.2875 14.34217722168917
IRIDIUM 139             
1 42963U 17061J   20364.67095769  .00000075  00000-0  19646-4 0  9995
2 42963  86.3985 139.2229 0002294  91.6934 268.4524 14.34215959168821
IRIDIUM 125             
1 42964U 17061K   20364.79780253  .00000074  00000-0  19332-4 0  9999
2 42964  86.3986 139.1948 0002222  90.8684 269.2766 14.34216122168857
QZS-4 (MICHIBIKI-4)     
1 42965U 17062A   20364.89960434 -.00000308  00000-0  00000+0 0  9991
2 42965  40.8317   9.0341 0751291 271.7457 277.8140  1.00251718 11798
SES-11 (ECHOSTAR 105)   
1 42967U 17063A   20365.53551667 -.00000071  00000-0  00000+0 0  9997
2 42967   0.0133  67.2296 0002610 204.3153 275.7091  1.00271633 11800
SENTINEL-5P             
1 42969U 17064A   20364.70589344 -.00000022  00000-0  10428-4 0  9997
2 42969  98.7217 301.0139 0001124  84.8936 275.2368 14.19548302166451
KESTREL EYE IIM (KE2M)  
1 42982U 98067NE  20365.40036628  .00038530  00000-0  21830-3 0  9996
2 42982  51.6355 356.1834 0003718 107.6938 252.4469 15.78661679181924
KOREASAT 5A             
1 42984U 17067A   20365.13590956 -.00000339  00000-0  00000+0 0  9997
2 42984   0.0225  82.1664 0002116 138.4446  40.5032  1.00271262 11620
COSMOS 2523             
1 42986U 17037E   20364.86114944  .00000048  00000-0  11362-4 0  9998
2 42986  97.7348  62.6206 0079297  18.3543 342.0509 14.86765080171859
SKYSAT-C11              
1 42987U 17068A   20364.78141847  .00003045  00000-0  80903-4 0  9993
2 42987  97.2469 116.4866 0011288  70.4135 289.8329 15.38975012176119
SKYSAT-C10              
1 42988U 17068B   20364.76927908  .00003079  00000-0  82066-4 0  9991
2 42988  97.2510 116.3623 0004623 105.0704 255.1053 15.38917582176139
SKYSAT-C9               
1 42989U 17068C   20364.88651344  .00002982  00000-0  79458-4 0  9996
2 42989  97.2470 115.9888 0000995  48.9172 311.2160 15.38961395176342
SKYSAT-C8               
1 42990U 17068D   20365.07445814  .00003036  00000-0  80679-4 0  9991
2 42990  97.2512 117.0447 0003556  85.3418 274.8234 15.39025892176204
SKYSAT-C7               
1 42991U 17068E   20364.80202024  .00003098  00000-0  82325-4 0  9994
2 42991  97.2517 116.7882 0001904  90.5765 269.5699 15.39014686176167
SKYSAT-C6               
1 42992U 17068F   20364.79186335  .00003067  00000-0  81524-4 0  9995
2 42992  97.2533 117.0256 0002236  41.6299 318.5117 15.39011985176173
FLOCK 3M-4              
1 42997U 17068L   20364.88782201  .00001631  00000-0  73885-4 0  9990
2 42997  97.4307 111.4361 0016120 143.1341 217.1007 15.22186319175455
FLOCK 3M-2              
1 42998U 17068M   20364.78462783  .00006450  00000-0  28289-3 0  9991
2 42998  97.4167 109.6809 0014875 139.0445 221.1911 15.22219002175444
BEIDOU-3 M1             
1 43001U 17069A   20364.82261421  .00000014  00000-0  00000-0 0  9997
2 43001  55.2903 129.6336 0007524 285.8019  76.5201  1.86231667 21447
BEIDOU-3 M2             
1 43002U 17069B   20364.75552964  .00000014  00000-0  00000+0 0  9994
2 43002  55.2890 129.6708 0006268 315.9060  45.0942  1.86231414 21433
MOHAMMED VI-A           
1 43005U 17070A   20365.48175500  .00000087  00000-0  19527-4 0  9996
2 43005  97.9416  74.4053 0001504  88.7372 271.4006 14.77096650169526
FENGYUN 3D              
1 43010U 17072A   20365.42806983  .00000007  00000-0  24020-4 0  9990
2 43010  98.7716 302.6989 0000641 191.4671 168.6485 14.19757569162006
HEAD-1                  
1 43011U 17072B   20365.48500361 -.00000026  00000-0  77853-5 0  9993
2 43011  98.7845 315.9304 0010064 172.9827 187.1492 14.26544785162797
NOAA 20                 
1 43013U 17073A   20365.44339910  .00000009  00000-0  24919-4 0  9996
2 43013  98.7386 300.5094 0001233  97.2847 262.8469 14.19546444161468
BUCCANEER RMM           
1 43014U 17073B   20365.46288455  .00001818  00000-0  14732-3 0  9996
2 43014  97.7099 268.8814 0247950 132.2473 230.0066 14.79893378168125
MIRATA                  
1 43015U 17073C   20365.01627062  .00001271  00000-0  10177-3 0  9991
2 43015  97.7137 269.7586 0252553 130.1504 232.2130 14.80165337168149
MAKERSAT 0              
1 43016U 17073D   20364.70436628  .00000896  00000-0  73441-4 0  9999
2 43016  97.7172 269.5862 0255843 132.7546 229.5506 14.79585722168073
RADFXSAT (FOX-1B)       
1 43017U 17073E   20364.70131732  .00000711  00000-0  59725-4 0  9993
2 43017  97.7172 269.3375 0257023 133.7893 228.4898 14.79233368168022
DELLINGR (RBLE)         
1 43021U 98067NJ  20365.40006527  .00052303  00000-0  27152-3 0  9993
2 43021  51.6328 353.2384 0003601  69.2282 290.9105 15.80455734177737
JILIN-01-04             
1 43022U 17074A   20365.38977791  .00000788  00000-0  52247-4 0  9994
2 43022  97.5263  95.7091 0007228 335.3539 111.8082 15.10090604171271
JILIN-01-05             
1 43023U 17074B   20365.40714664  .00000678  00000-0  45489-4 0  9994
2 43023  97.5266  95.8597 0007861 344.8321  79.4017 15.10090122171276
JILIN-01-06             
1 43024U 17074C   20365.50770882  .00001435  00000-0  91922-4 0  9995
2 43024  97.5256  95.8931 0010481 342.5861 147.3887 15.10084370171283
YAOGAN 30 D             
1 43028U 17075A   20365.49880978  .00000311  00000-0  34491-4 0  9996
2 43028  34.9986  33.1822 0002323 330.5767  29.4815 14.89843453168865
YAOGAN 30 E             
1 43029U 17075B   20365.47768329  .00000305  00000-0  33911-4 0  9999
2 43029  34.9983  32.9480 0005541 275.2130  84.7948 14.89835097168859
YAOGAN 30 F             
1 43030U 17075C   20365.52091601  .00000273  00000-0  30666-4 0  9997
2 43030  34.9981  32.4568 0003182  92.6197 267.4870 14.89846009168842
COSMOS 2524             
1 43032U 17076A   20365.46364728 -.00000053  00000-0  15807-4 0  9993
2 43032  67.1477   5.4429 0009970 255.4522 104.5464 13.97058763157006
LKW-1                   
1 43034U 17077A   20365.41610752  .00001185  00000-0  52765-4 0  9992
2 43034  97.3587  78.4567 0006583 281.7015 207.2019 15.23378387171005
ALCOMSAT 1              
1 43039U 17078A   20365.18382800 -.00000167  00000-0  00000+0 0  9992
2 43039   0.0244 147.5001 0002209 137.3083 215.6756  1.00266602 11273
LEMUR-2-ROCKETJONAH     
1 43041U 17071E   20364.87853796  .00017680  00000-0  29730-3 0  9992
2 43041  51.6327 165.3332 0000552 250.3477 109.7453 15.51822058175156
AEROCUBE 7B (OCSD B)    
1 43042U 17071F   20364.97377857  .00008471  00000-0  18049-3 0  9992
2 43042  51.6348 185.9590 0003964  53.2009 306.9341 15.45785895172597
AEROCUBE 7C (OCSD C)    
1 43043U 17071G   20364.91661515  .00008363  00000-0  17877-3 0  9992
2 43043  51.6347 186.3421 0004257  56.1524 303.9868 15.45708045172554
CHEFSAT                 
1 43044U 17071H   20365.14962441  .00019044  00000-0  30601-3 0  9999
2 43044  51.6345 162.0056 0002776  67.7759 292.3525 15.53036547172900
LEMUR-2-YONGLIN         
1 43045U 17071J   20365.13484705  .00020419  00000-0  32592-3 0  9990
2 43045  51.6348 158.9248 0002052  48.1812 311.9353 15.53173648172980
LEMUR-2-KEVIN           
1 43046U 17071K   20364.93961304  .00015627  00000-0  27740-3 0  9997
2 43046  51.6347 168.8425 0002609  54.2521 305.8710 15.50392401172841
LEMUR-2-BRIANDAVIE      
1 43047U 17071L   20365.15786149  .00017371  00000-0  29829-3 0  9993
2 43047  51.6330 167.1504 0002207 106.1616 253.9616 15.51245809172871
LEMUR-2-ROMACOSTE       
1 43048U 17071M   20364.72685902  .00018988  00000-0  31796-3 0  9992
2 43048  51.6338 165.8923 0002201 104.3210 255.8024 15.51885910172859
